HST                     
1 20580U 90037B   22276.45434602  .00004297  00000+0  24035-3 0  9999
2 20580  28.4690 172.9776 0002655 118.7627  53.7180 15.10961481582561
POLAR                   
1 23802U 96013A   22271.22361891  .00000267  00000+0  00000+0 0  9993
2 23802  78.7965 240.5999 5787053 255.3607  36.8883  1.29847317127222
SWAS                    
1 25560U 98071A   22276.17262681  .00002383  00000+0  22552-3 0  9999
2 25560  69.8978  74.7142 0007072 181.6174 178.4961 14.95048233294129
CXO                     
1 25867U 99040B   22279.11171106  .00001010  00000+0  00000+0 0  9990
2 25867  42.3434 225.8023 8920692 240.0893   0.5106  0.37812111 12216
XMM-NEWTON              
1 25989U 99066A   22276.19054504  .00000121  00000+0  00000+0 0  9992
2 25989  69.8333 302.7786 5886973  85.5676 359.8678  0.50131245 16221
TERRA                   
1 25994U 99068A   22276.50196447  .00000494  00000+0  11948-3 0  9998
2 25994  98.1276 345.8940 0001018  93.6602  34.1377 14.57166284212232
CLUSTER II-FM7 (SAMBA)  
1 26410U 00041A   22277.46861407 -.00000164  00000+0  00000+0 0  9994
2 26410 134.6369 348.8431 5891683 201.2713   0.6862  0.44209696 14292
CLUSTER II-FM6 (SALSA)  
1 26411U 00041B   22277.41229346 -.00000315  00000+0  00000+0 0  9998
2 26411 137.4306 353.2482 7566747 206.4638   0.7465  0.44219160 25363
CLUSTER II-FM5 (RUMBA)  
1 26463U 00045A   22277.41722114 -.00000175  00000+0  00000+0 0  9994
2 26463 140.9149 353.5456 7072353 207.3608   0.7509  0.44218639 26630
CLUSTER II-FM8 (TANGO)  
1 26464U 00045B   22277.42393332 -.00000163  00000+0  00000+0 0  9999
2 26464 134.6543 348.8460 5890707 201.2703   0.6793  0.44220326 14300
ODIN                    
1 26702U 01007A   22276.51284955  .00005825  00000+0  35555-3 0  9998
2 26702  97.5198 289.3216 0008836 277.7431  82.2795 15.10665967182588
TIMED                   
1 26998U 01055B   22276.50038279  .00001533  00000+0  16762-3 0  9994
2 26998  74.0719  64.3660 0002144 274.0548  86.0388 14.88822486129220
RHESSI                  
1 27370U 02004A   22276.52096179  .00044122  00000+0  81122-3 0  9992
2 27370  38.0320  46.2377 0007867  36.3494 323.7815 15.48253057143347
INTEGRAL                
1 27540U 02048A   22274.29534260 -.00000030  00000+0  00000+0 0  9992
2 27540  78.0545  53.1521 8871747 296.8587  73.2494  0.37567629 21549
CORIOLIS                
1 27640U 03001A   22276.48123007  .00000121  00000+0  78552-4 0  9991
2 27640  98.7197 283.7332 0014824 143.4199 341.7020 14.19153994 22300
SORCE                   
1 27651U 03004A   22276.51000405  .00002595  00000+0  27625-3 0  9997
2 27651  39.9961 334.0340 0022318 155.3571 204.8289 14.90167005 69191
MOST                    
1 27843U 03031D   22276.46075199  .00000102  00000+0  67724-4 0  9993
2 27843  98.7102 282.4866 0009735 190.5477 169.5497 14.20703785998583
SCISAT 1                
1 27858U 03036A   22276.50028245  .00000739  00000+0  10815-3 0  9993
2 27858  73.9338 330.7507 0008583 335.3110  24.7653 14.77651596 31394
SWIFT                   
1 28485U 04047A   22276.29554499  .00006975  00000+0  42234-3 0  9992
2 28485  20.5567 273.0164 0010393 224.9130 135.0463 15.07018465979839
CLOUDSAT                
1 29107U 06016A   22276.53040819  .00000507  00000+0  10820-3 0  9996
2 29107  98.3407 237.7468 0003031 358.0153   2.1036 14.63096903874834
CALIPSO                 
1 29108U 06016B   22276.52997025  .00001500  00000+0  30160-3 0  9999
2 29108  98.3379 237.2734 0001454  81.3965 278.7401 14.63098215874822
HINODE (SOLAR-B)        
1 29479U 06041A   22276.50159308  .00000702  00000+0  14007-3 0  9995
2 29479  98.1201 290.2932 0017238 243.8081 116.1350 14.64924078856571
SJ-6C                   
1 29505U 06046A   22276.49371663  .00003135  00000+0  28107-3 0  9997
2 29505  97.7741 296.8198 0006129 112.0738 248.1137 14.96488577868851
SJ-6D                   
1 29506U 06046B   22276.50126475  .00000988  00000+0  97590-4 0  9995
2 29506  97.7939 296.8870 0001652 167.2371 192.8886 14.94193539868270
AGILE                   
1 31135U 07013A   22276.10186416  .00020241  00000+0  45880-3 0  9996
2 31135   2.4673 102.2398 0009862 349.6581  10.3271 15.39824769493568
AIM                     
1 31304U 07015A   22276.34164222  .00018025  00000+0  85791-3 0  9995
2 31304  97.8516 199.6587 0005339  27.0629 333.0881 15.19212206847565
FGRST (GLAST)           
1 33053U 08029A   22276.38280103  .00002961  00000+0  14883-3 0  9991
2 33053  25.5814 151.0717 0011914 352.8374   7.1990 15.12465432790051
WISE                    
1 36119U 09071A   22276.53382215  .00010856  00000+0  32364-3 0  9995
2 36119  97.2317 308.8351 0000342 299.7011  60.4199 15.34832093712071
SDO                     
1 36395U 10005A   22276.03566487 -.00000065  00000+0  00000+0 0  9990
2 36395  31.8595 107.4809 0001483 213.7218 321.6381  1.00273639 46496
CRYOSAT 2               
1 36508U 10013A   22276.52666373  .00000289  00000+0  71059-4 0  9998
2 36508  92.0274 310.3291 0002789 213.5957 146.5074 14.51909719661810
X-SAT                   
1 37389U 11015C   22276.40230238  .00000059  00000+0  43159-4 0  9998
2 37389  98.3280 304.1497 0014175   0.7551 359.3648 14.24441759595576
GCOM-W1 (SHIZUKU)       
1 38337U 12025A   22276.45883247  .00000795  00000+0  18649-3 0  9995
2 38337  98.2094 215.3491 0001349  80.5967  34.0318 14.57097340552040
NUSTAR                  
1 38358U 12031A   22276.51701999  .00004533  00000+0  38774-3 0  9990
2 38358   6.0270 297.2776 0010551 100.2997 259.8322 14.89714576560996
NEOSSAT                 
1 39089U 13009D   22276.48915303  .00000249  00000+0  10305-3 0  9990
2 39089  98.4183 110.0813 0010600 321.2102  38.8322 14.34698162502700
BRITE-AUSTRIA           
1 39091U 13009F   22276.47770776  .00000206  00000+0  86842-4 0  9998
2 39091  98.4012 110.9631 0009738 321.8399  38.2096 14.35305886502920
IRIS                    
1 39197U 13033A   22276.47006741  .00001348  00000+0  18681-3 0  9999
2 39197  97.9712 101.3805 0028273  41.5884 318.7471 14.79381804499947
HISAKI (SPRINT-A)       
1 39253U 13049A   22276.29565967  .00000136  00000+0  93648-4 0  9990
2 39253  29.7196 256.7193 0137055 210.9018 148.3428 13.55287546447745
CASSIOPE                
1 39265U 13055A   22276.52254974  .00021943  00000+0  57676-3 0  9998
2 39265  80.9643 152.6030 0613361 357.5438   2.2762 14.40994429467887
STSAT-3                 
1 39422U 13066G   22276.49701090  .00001672  00000+0  17498-3 0  9992
2 39422  97.4740 275.8632 0020917 282.8010  77.0884 14.90734027481932
SWARM B                 
1 39451U 13067A   22276.59460482  .00004678  00000+0  21049-3 0  9999
2 39451  87.7554  28.9493 0002363  94.5885 265.5630 15.20866048477362
SWARM A                 
1 39452U 13067B   22276.51357846  .00006982  00000+0  21651-3 0  9990
2 39452  87.3668 185.9500 0003119  75.0806 285.0791 15.33225572498481
SWARM C                 
1 39453U 13067C   22276.51347336  .00006933  00000+0  21496-3 0  9997
2 39453  87.3518 185.2029 0003120  75.0918 285.0679 15.33226102498442
BRITE-CA1 (TORONTO)     
1 40020U 14033L   22276.38269029  .00001175  00000+0  20648-3 0  9991
2 40020  97.7930  69.9409 0085328 279.4543  79.7025 14.67155934443488
OCO 2                   
1 40059U 14035A   22276.57103054  .00000690  00000+0  16320-3 0  9994
2 40059  98.2093 216.1837 0001311  95.5622 264.5726 14.57096182439072
BRITE-PL2 (HEWELIUSZ)   
1 40119U 14049B   22276.54214324  .00001839  00000+0  21985-3 0  9995
2 40119  97.8841  11.0721 0015912 246.7978 113.1562 14.85322867440055
RESURS P2               
1 40360U 14087A   22276.55723547  .00007368  00000+0  20125-3 0  9996
2 40360  97.2020 359.3436 0010399  65.0316  59.1717 15.37638813434861
MMS 1                   
1 40482U 15011A   22273.10142133 -.00001217  00000+0  00000+0 0  9997
2 40482  30.7505  97.2092 8787837  61.5058 359.5380  0.28420925 13607
MMS 2                   
1 40483U 15011B   22273.28369517 -.00001239  00000+0  00000+0 0  9998
2 40483  30.7481  97.2069 8790747  61.5154  18.1884  0.28418164 13661
MMS 3                   
1 40484U 15011C   22273.28369668 -.00001238  00000+0  00000+0 0  9995
2 40484  30.7508  97.1972 8789715  61.5110  18.2345  0.28429594 13346
MMS 4                   
1 40485U 15011D   22273.22393630 -.00001231  00000+0  00000+0 0  9999
2 40485  30.7439  97.2231 8788914  61.4875  12.1049  0.28417597 13553
ASTROSAT                
1 40930U 15052A   22276.33113522  .00001919  00000+0  17823-3 0  9991
2 40930   5.9962 128.8650 0009232 245.0263 114.8905 14.76772053379129
DAMPE                   
1 41173U 15078A   22276.45621497  .00001041  00000+0  45025-4 0  9999
2 41173  97.3860 265.6378 0013676 172.2897 339.2693 15.24607794378038
PISAT                   
1 41784U 16059B   22276.33641244  .00000963  00000+0  19126-3 0  9990
2 41784  97.9055 315.4385 0031602 185.9896 174.0934 14.64020155321471
HXMT (HUIYAN)           
1 42758U 17034A   22276.64342215  .00003244  00000+0  20388-3 0  9993
2 42758  43.0170 113.1005 0010195 245.7710 165.0975 15.10970860292548
FLYING LAPTOP           
1 42831U 17042G   22276.51520104  .00000937  00000+0  97500-4 0  9992
2 42831  97.4103 124.6369 0014118  12.3478 347.8126 14.91960436284205
PICSAT                  
1 43132U 18004X   22276.48139088  .00028834  00000+0  87303-3 0  9994
2 43132  97.3634 352.4088 0006369 341.8844  18.2171 15.34113025262952
ZHANGZHENG-1 (CSES)     
1 43194U 18015C   22276.49157890  .00010666  00000+0  48750-3 0  9993
2 43194  97.5368  47.1705 0011928  70.8228 353.9398 15.20681192259048
ICON                    
1 44628U 19068A   22276.45072619  .00004075  00000+0  36055-3 0  9998
2 44628  26.9899 322.6186 0018767  82.7289 277.5401 14.93229534162728
SALSAT                  
1 46495U 20068K   22276.55783819  .00004223  00000+0  30181-3 0  9995
2 46495  97.7367 217.9556 0014262 271.8318  88.1275 15.04950888110448
IXPE                    
1 49954U 21121A   22276.58131056  .00004532  00000+0  36350-3 0  9999
2 49954   0.2306 308.5274 0011016  83.8382 327.7022 14.91736114 44608
